KHWD 201622Z 28003KT 10SM SCT011 17/15 A2989 RMK AO2 
