METAR KLVK 141853Z 30009KT 10SM CLR 28/09 A2996 RMK AO2 SLP140 T02830094
